7314-77782-0000 ",BY,JINGO,SAID,THE,IDIOT,,AS,HE,WEARILY,TOOK,HIS,PLACE,AT,THE,BREAKFAST,TABLE,,THE,OTHER,MORNING,,BUT,I'M,JUST,REGULARLY,TUCKERED,OUT,,LATE,HOURS,AGAIN,ASKED,THE,LAWYER,,NOT,A,LATE,HOUR,RETURNED,THE,IDIOT,,MATTER,OF,FACT," "0.270,0.460,0.840,1.110,1.220,1.580,1.790,1.990,2.110,2.530,2.750,2.890,3.280,3.380,3.470,3.880,4.250,4.370,4.520,4.660,4.980,5.840,5.980,6.170,6.420,6.970,7.380,7.600,8.690,8.910,9.170,9.490,9.700,9.780,10.110,11.200,11.410,11.500,11.700,12.020,12.370,12.470,12.770,13.450,13.740,13.830,14.240,14.315" 
7314-77782-0001 ",I,WENT,TO,BED,LAST,NIGHT,AT,HALF,AFTER,SEVEN,,AND,NEVER,WAKED,UNTIL,NINE,THIS,MORNING,,IN,SPITE,OF,ALL,THAT,SLEEP,AND,REST,,I,FEEL,NOW,AS,IF,I'D,BEEN,PUT,THROUGH,A,THRESHING,MACHINE,,EVERY,BONE,IN,MY,BODY,FROM,THE,FUNNY,TO,THE,MEDULLA,,ACHES,LIKE,ALL,POSSESSED," "0.120,0.230,0.440,0.530,0.760,1.100,1.360,1.440,1.760,2.020,2.390,2.750,2.920,3.170,3.480,3.740,4.050,4.230,4.540,4.870,4.990,5.300,5.390,5.570,5.780,6.120,6.220,6.660,6.960,7.070,7.340,7.690,7.810,7.990,8.100,8.260,8.440,8.750,8.800,9.220,9.640,10.270,10.590,10.860,10.940,11.100,11.470,11.720,11.810,12.140,12.270,12.360,12.850,12.900,13.240,13.420,13.610,14.130,14.345" 
7314-77782-0002 ",AND,MY,JOINTS,CREAK,LIKE,A,NEW,PAIR,OF,SHOES,ON,A,SCHOOL,BOY,IN,CHURCH,,THEY,ARE,SO,STIFF,,OH,WELL,SAID,THE,DOCTOR,,WHAT,OF,IT,,THE,PACE,THAT,KILLS,IS,BOUND,TO,HAVE,SOME,SYMPTOMS,PRELIMINARY,TO,DISSOLUTION," "0.260,0.440,0.560,0.940,1.270,1.450,1.520,1.690,1.940,2.020,2.490,2.610,2.680,2.980,3.170,3.280,3.720,4.020,4.180,4.300,4.630,5.170,5.930,6.100,6.430,6.670,6.750,7.200,7.320,7.540,7.660,7.770,8.440,8.580,8.910,9.100,9.540,9.660,9.950,10.020,10.240,10.470,10.990,11.620,11.780,12.390,12.7" 
7314-77782-0003 ",IF,YOU,,LIKE,OTHER,YOUNG,MEN,OF,THE,AGE,,BURN,THE,CANDLE,AT,BOTH,ENDS,AND,IN,THE,MIDDLE,,WHAT,CAN,YOU,EXPECT,,YOU,PUSH,NATURE,INTO,A,CORNER,AND,THEN,GROWL,LIKE,ALL,POSSESSED,,BECAUSE,SHE,REBELS,,NOT,I,RETORTED,THE,IDIOT," "0.370,0.580,0.910,0.940,1.160,1.320,1.560,1.770,1.870,2.020,2.390,2.430,2.680,2.770,3.160,3.260,3.550,3.810,3.930,4.030,4.120,4.440,4.840,5.010,5.160,5.280,5.800,6.550,6.690,7.000,7.460,7.670,7.720,8.210,8.320,8.470,8.860,9.060,9.240,9.790,10.030,10.360,10.510,11.030,11.660,11.910,12.080,12.520,12.620,12.930,13.18" 
7314-77782-0004 ",MISTER,PEDAGOG,,AND,THE,POET,,AND,MISTER,BIB,,MAY,LEAD,THE,STRENUOUS,LIFE,,BUT,AS,FOR,MINE,,THE,SIMPLE,LIFE,IS,THE,THING,,I'M,NOT,STRIVING,AFTER,THE,UNATTAINABLE,,I'M,NOT,WASTING,MY,PHYSICAL,SUBSTANCE,IN,RIOTOUS,LIVING,,THE,COLD,AND,CLAMMY,TOUCH,OF,DISSIPATION," "0.300,0.590,1.260,1.290,1.460,1.540,1.920,1.980,2.140,2.420,2.720,2.990,3.180,3.420,3.490,4.050,4.390,4.690,4.820,4.970,5.140,5.520,5.630,5.760,6.110,6.370,6.480,6.610,6.920,7.600,7.780,7.950,8.510,8.710,8.870,9.540,10.000,10.170,10.360,10.720,10.850,11.280,11.880,12.060,12.470,12.800,13.440,13.560,13.950,14.050,14.450,14.780,14.900,15.630,15.74" 
7314-77782-0005 ",IS,NOT,WRITING,LETTERS,OF,BURNING,CONDEMNATION,PROCEEDINGS,ON,MY,BROW,,EXCESSES,IN,ANY,FORM,ARE,UTTERLY,UNKNOWN,TO,ME,,AND,FROM,ONE,END,OF,THE,SUBWAY,TO,THE,OTHER,,YOU,WON'T,FIND,ANOTHER,MAN,OF,MY,AGE,,WHO,IN,GENERAL,TAKES,BETTER,CARE,OF,HIMSELF," "0.160,0.350,0.580,0.920,1.230,1.330,1.650,2.430,2.980,3.110,3.280,3.620,3.990,4.620,4.740,4.930,5.330,5.540,5.840,6.260,6.400,6.590,7.040,7.220,7.400,7.590,7.800,7.890,7.970,8.350,8.480,8.600,8.920,9.200,9.360,9.550,9.820,10.100,10.350,10.430,10.720,11.030,11.340,11.500,11.600,11.920,12.190,12.420,12.670,12.740,13.170,13.54" 
7314-77782-0006 ",I,AM,AS,WATCHFUL,OF,MY,OWN,NEEDS,AS,THOUGH,I,WERE,A,BABY,,AND,MY,OWN,NURSE,,AT,ONE,AND,THE,SAME,TIME,,NO,MOTHER,COULD,WATCH,OVER,HER,OFFSPRING,MORE,TENDERLY,THAN,I,WATCH,OVER,ME,,AND,,WELL,THEN,,WHAT,IN,THUNDER,IS,THE,MATTER,WITH,YOU,CRIED,THE,LAWYER,IRRITATED," "0.310,0.450,0.630,0.760,1.310,1.400,1.610,1.770,2.130,2.280,2.480,2.520,2.730,2.800,3.240,3.470,3.630,3.820,4.000,4.360,4.390,4.580,4.810,4.910,5.000,5.290,5.690,6.400,6.580,6.900,7.040,7.350,7.570,7.820,8.220,8.440,8.920,9.080,9.190,9.500,9.720,10.070,10.540,11.050,11.720,11.960,12.210,12.660,12.840,12.940,13.310,13.410,13.470,13.750,13.910,14.040,14.310,14.400,14.760,15.260,15.495" 
7314-77782-0007 ",IF,THIS,IS,ALL,TRUE,WHY,ON,EARTH,ARE,YOU,PROCLAIMING,YOURSELF,AS,A,PHYSICAL,WRECK,,THERE,MUST,BE,SOME,CAUSE,FOR,YOUR,CONDITION,,THERE,IS,SAID,THE,IDIOT,MEEKLY,,I,WENT,CHRISTMAS,SHOPPING,YESTERDAY,WITHOUT,HAVING,PREVIOUSLY,TRAINED,FOR,IT,,AND,THIS,IS,THE,RESULT," "0.300,0.460,0.680,0.800,0.970,1.290,1.560,1.640,1.920,1.980,2.120,2.660,3.120,3.250,3.320,3.770,4.070,4.760,4.920,5.140,5.260,5.560,5.970,6.150,6.310,6.830,7.800,8.080,8.320,8.550,8.710,8.990,9.410,10.080,10.200,10.410,10.790,11.200,11.590,11.990,12.260,12.810,13.180,13.380,13.490,13.790,13.970,14.180,14.300,14.410,14.850,15.255" 
7314-77782-0008 ",I,SOMETIMES,WONDER,DOCTOR,,THAT,YOU,GENTLEMEN,,WHO,HAVE,THE,PUBLIC,HEALTH,MORE,OR,LESS,IN,YOUR,HANDS,,DON'T,TAKE,THE,INITIATIVE,,AND,STAVE,OFF,NERVOUS,PROSTRATION,,AND,OTHER,ILLS,ATTENDANT,UPON,A,RUN,DOWN,PHYSICAL,CONDITION,,INSTEAD,OF,WAITING,FOR,A,FULLY,DEVELOPED,CASE," "0.440,0.540,1.090,1.450,1.870,1.950,2.120,2.280,2.720,3.090,3.230,3.390,3.480,3.850,4.200,4.420,4.480,4.720,4.790,4.950,5.300,5.810,6.050,6.290,6.390,6.880,7.080,7.240,7.550,7.790,8.180,8.960,9.250,9.450,9.700,10.000,10.430,10.710,10.790,11.000,11.230,11.650,12.130,12.340,12.670,12.740,13.100,13.290,13.350,13.680,14.100,14.470,14.64" 
7314-77782-0009 ",AND,TRYING,TO,CURE,IT,AFTER,THE,FACT,,THE,OUNCE,OF,PREVENTION,IDEA,OUGHT,TO,BE,INCORPORATED,IT,SEEMS,TO,ME,,INTO,THE,MATERIA,MEDICA,,WHAT,WOULD,YOU,HAVE,US,DO,,MOVE,MOUNTAINS,DEMANDED,THE,DOCTOR," "0.200,0.360,0.670,0.790,1.050,1.150,1.460,1.540,1.940,2.450,2.670,2.890,2.990,3.520,3.930,4.150,4.230,4.340,5.080,5.200,5.530,5.640,5.880,6.270,6.550,6.650,7.250,7.680,9.100,9.340,9.500,9.600,9.800,9.980,10.330,10.360,10.660,11.120,11.510,11.580,12.000,12.31" 
7314-77782-0010 ",I'M,NOT,AFRAID,TO,TACKLE,ALMOST,ANY,KIND,OF,FEVER,KNOWN,TO,MEDICAL,SCIENCE,,BUT,THE,SHOPPING,FEVER,,WELL,,IT,IS,INCURABLE," "0.390,0.530,0.670,1.010,1.090,1.520,1.860,2.050,2.310,2.420,2.770,3.030,3.120,3.450,3.960,4.510,4.650,4.760,5.150,5.540,5.660,6.010,6.480,6.660,6.860,7.400,7.69" 
7314-77782-0011 ",AND,MORE,ESPECIALLY,A,WOMAN,,THERE,ISN'T,ANYTHING,THAT,I,KNOW,OF,CAN,GET,IT,OUT,OF,THE,SYSTEM,,I,GRANT,YOU,THAT,IT,IS,AS,MUCH,OF,A,DISEASE,AS,SCARLET,,TYPHOID,OR,ANY,OTHER,,BUT,THE,MIND,HAS,NOT,YET,BEEN,DISCOVERED,THAT,CAN,FIND,A,REMEDY,FOR,IT,SHORT,OF,ABJECT,POVERTY," "0.140,0.330,0.500,1.010,1.080,1.440,1.780,1.930,2.170,2.590,2.710,2.850,3.080,3.290,3.430,3.580,3.720,3.900,3.990,4.090,4.490,5.520,5.670,5.980,6.070,6.260,6.440,6.690,6.840,7.090,7.200,7.270,7.750,7.900,8.370,8.460,9.050,9.230,9.450,9.750,10.160,10.300,10.390,10.700,10.840,11.110,11.340,11.480,12.040,12.190,12.320,12.590,12.650,13.000,13.280,13.400,13.670,13.800,14.210,14.630,14.87" 
7314-77782-0012 ",AND,EVEN,THAT,HAS,BEEN,KNOWN,TO,FAIL,,THAT'S,TRUE,ENOUGH,SAID,THE,IDIOT," "0.270,0.440,0.690,0.910,1.050,1.190,1.420,1.500,1.850,3.270,3.560,3.820,4.030,4.260,4.350,4.680,4.89" 
7314-77782-0013 ",THAT,NOWADAYS,WE,LOOK,UPON,AS,MERE,TRIFLES,,BECAUSE,PEOPLE,CAN,BE,PUT,PHYSICALLY,INTO,SUCH,A,CONDITION,,THAT,THEY,ARE,PRACTICALLY,IMMUNE,TO,THEIR,RAVAGES,,MAYBE,SO,,BUT,IF,PEOPLE,WILL,SHOP,THEY,ARE,GOING,TO,BE,KNOCKED,OUT,BY,IT," "0.180,0.360,0.910,1.020,1.190,1.540,1.670,1.840,2.370,3.110,3.450,3.820,3.980,4.110,4.340,4.900,5.100,5.380,5.430,5.970,6.340,6.520,6.620,6.720,7.270,7.760,7.870,8.030,8.610,9.410,9.750,10.100,10.630,10.760,10.880,11.180,11.330,11.780,11.870,11.950,12.170,12.250,12.350,12.660,12.870,13.000,13.150,13.415" 
7314-77782-0014 ",I,DON'T,SEE,THAT,WE,DOCTORS,CAN,DO,ANYTHING,TO,MITIGATE,THE,EVIL,EFFECTS,,OF,THE,CONSEQUENCES,AB,INITIO," "0.330,0.450,0.620,0.830,0.980,1.130,1.550,1.680,1.890,2.230,2.330,2.760,2.850,3.160,3.640,3.940,4.070,4.170,4.990,5.200,5.710,5.97" 
7314-77782-0015 ",AND,BUILD,YOU,UP,AGAIN,,BUT,THE,OUNCE,OF,PREVENTION,FOR,SHOPPING,TROUBLES,IS,AS,EASILY,ATTAINABLE,AS,A,TON,OF,RADIUM,,TO,A,MAN,WITH,EIGHT,CENTS,,AND,A,CANCELLED,POSTAGE,STAMP,IN,HIS,POCKET,,SAID,THE,DOCTOR,,NONSENSE,DOCTOR,,YOU'RE,ONLY,FOOLING,SAID,THE,IDIOT," "0.220,0.360,0.570,0.710,0.840,1.140,1.620,1.760,1.920,2.110,2.210,2.690,2.850,3.230,3.710,3.870,4.050,4.400,4.940,5.050,5.140,5.350,5.470,5.900,6.210,6.370,6.420,6.700,6.820,6.990,7.380,7.610,7.750,7.820,8.230,8.650,8.990,9.050,9.170,9.550,9.710,9.950,10.040,10.420,11.610,12.140,12.540,12.700,12.920,13.110,13.570,13.800,13.900,14.170,14.535" 
7314-77782-0016 ",A,COLLEGE,PRESIDENT,MIGHT,AS,WELL,SAY,THAT,BOYS,WILL,PLAY,FOOTBALL,,AND,THAT,THERE'S,NOTHING,THEY,CAN,DO,TO,STAVE,OFF,THE,INEVITABLE,CONSEQUENCES,OF,PLAYING,THE,GAME,,TO,ONE,WHO,ISN'T,PREPARED,FOR,IT,,YOU,KNOW,AS,WELL,AS,ANYBODY,ELSE,THAT,FROM,NOVEMBER,FIFTEENTH,TO,DECEMBER,TWENTY,FOURTH," "0.400,0.520,0.900,1.420,1.610,1.720,1.920,2.150,2.340,2.630,2.740,2.970,3.480,3.930,4.060,4.190,4.390,4.740,4.870,5.010,5.190,5.270,5.610,5.820,5.980,6.470,7.250,7.330,7.670,7.760,8.090,8.430,8.580,8.800,8.990,9.190,9.570,9.770,9.840,10.700,10.870,11.120,11.200,11.430,11.520,11.940,12.230,12.370,12.570,12.960,13.570,13.690,14.110,14.390,14.840,14.975" 
7314-77782-0017 ",EVERY,YEAR,AN,EPIDEMIC,OF,SHOPPING,IS,GOING,TO,BREAK,OUT,IN,OUR,MIDST," "0.190,0.500,0.820,0.950,1.460,1.540,1.960,2.070,2.240,2.310,2.610,2.790,2.900,3.030,3.410,3.72" 
7314-77782-0018 ",THANKS,TO,OUR,HABIT,OF,LEAVING,EVERYTHING,TO,THE,LAST,MINUTE,,YOU,KNOW,THAT,THE,MEN,AND,WOMEN,IN,YOUR,CARE,UNLESS,THEY,HAVE,PROPERLY,TRAINED,FOR,THE,EXIGENCIES,OF,THE,EPIDEMIC,PERIOD,,WILL,BE,PROSTRATED,PHYSICALLY,AND,NERVOUSLY,,RACKED,IN,BONE,AND,BODY,,ACHING,FROM,,TIP,TO,TOE," "0.160,0.450,0.580,0.720,1.020,1.110,1.460,1.930,2.050,2.150,2.540,2.770,3.660,3.860,4.080,4.260,4.350,4.600,4.740,5.070,5.170,5.360,5.730,6.200,6.320,6.430,6.890,7.280,7.390,7.560,8.350,8.540,8.690,9.200,9.730,10.030,10.170,10.290,10.960,11.460,11.550,12.060,12.520,12.830,12.960,13.210,13.340,13.670,14.140,14.470,14.680,14.710,14.940,15.070,15.410,15.59" 
7314-77782-0019 ",THEIR,ENERGY,EXHAUSTED,AND,THEIR,SPINES,AS,LIMP,AS,A,RAG,,AND,YET,YOU,CLAIM,YOU,CAN,DO,NOTHING,,WHAT,WOULD,WE,THINK,OF,A,FOOTBALL,TRAINER,WHO,WOULD,TRY,THUS,TO,ACCOUNT,FOR,THE,CONDITION,OF,HIS,ELEVEN,,AT,THE,END,OF,A,SEASON,,WE'D,BOUNCE,HIM,,THAT'S,WHAT," "0.250,0.500,0.840,1.420,1.580,1.710,2.190,2.340,2.570,2.680,2.780,3.130,3.550,3.780,3.930,4.120,4.490,4.590,4.720,4.870,5.260,5.690,5.880,6.010,6.120,6.440,6.550,6.620,7.020,7.350,7.470,7.610,7.910,8.170,8.320,8.650,8.770,8.870,9.320,9.400,9.510,9.970,10.000,10.130,10.250,10.400,10.490,10.560,10.980,11.500,11.730,12.030,12.200,12.420,12.710,12.950,13.3" 
7314-77782-0020 ",PERHAPS,THAT,GIGANTIC,INTELLECT,OF,YOURS,HAS,SOMETHING,TO,SUGGEST,,SNEERED,THE,DOCTOR,,CERTAINLY,QUOTH,THE,IDIOT,,I,DREAMED,IT,ALL,OUT,IN,MY,SLEEP,LAST,NIGHT,,I,DREAMED,THAT,YOU,AND,I,TOGETHER,HAD,STARTED,A,SERIES,OF,ESTABLISHMENTS,,ALL,OVER,THE,COUNTRY," "0.440,0.860,1.080,1.850,2.350,2.460,2.780,2.990,3.330,3.480,4.110,4.160,4.590,4.700,5.130,6.170,6.670,7.020,7.120,7.440,8.180,8.320,8.640,8.700,8.940,9.100,9.160,9.280,9.660,9.970,10.180,10.680,10.800,11.100,11.250,11.480,11.570,11.730,12.140,12.280,12.690,12.740,13.150,13.220,13.990,14.020,14.290,14.500,14.600,15.010,15.255" 
7314-77782-0021 ",TO,ERADICATE,THE,SHOPPING,EVIL,LAUGHED,THE,DOCTOR,,A,SORT,OF,KEELEY,CURE,,FOR,SHOPPING,INEBRIATES,,NAY,NAY,RETORTED,THE,IDIOT,,THE,SHOPPING,INEBRIATE,,IS,TOO,MUCH,OF,A,FACTOR,IN,OUR,COMMERCIAL,PROSPERITY,,TO,MAKE,SUCH,A,THING,AS,THAT,POPULAR," "0.290,0.420,0.910,1.010,1.400,1.610,1.830,1.900,2.310,2.870,2.980,3.240,3.380,3.770,4.170,4.370,4.610,5.150,5.860,6.780,7.140,7.430,7.860,7.950,8.240,8.880,9.000,9.440,10.030,10.060,10.220,10.370,10.580,10.650,10.720,11.220,11.320,11.420,11.870,12.610,12.890,13.030,13.210,13.440,13.530,13.830,14.000,14.270,14.750,15.15" 
7314-77782-0022 ",JUST,THINK,OF,WHAT,A,BOON,IT,WOULD,BE,FOR,A,LOT,OF,DELICATE,WOMEN,FOR,INSTANCE,,WHO,KNOW,THAT,ALONG,ABOUT,CHRISTMAS,TIME,,THEY,MUST,HIE,THEM,FORTH,TO,THE,DEPARTMENT,STORES," "0.350,0.670,0.860,0.980,1.150,1.220,1.540,1.630,1.800,1.980,2.190,2.250,2.450,2.550,2.970,3.270,3.470,3.880,4.340,4.450,4.730,4.880,5.230,5.470,5.890,6.210,6.560,6.680,6.940,7.170,7.330,7.700,7.830,7.950,8.400,8.750,9.0" 
7314-77782-0023 ",THERE,TO,BE,CRUSHED,AND,MAULED,AND,PULLED,AND,HAULED,UNTIL,THERE,IS,SCARCELY,ANYTHING,LEFT,TO,THEM,,TO,FEEL,THAT,THEY,COULD,COME,TO,OUR,SHOPNASIUM,AND,THERE,BE,TRAINED,FOR,THE,ORDEAL,WHICH,THEY,CANNOT,ESCAPE,,VERY,NICE,SAID,THE,DOCTOR,,BUT,HOW,ON,EARTH,CAN,YOU,TRAIN,THEM,,THAT'S,WHAT,I'D,LIKE,TO,KNOW," "0.170,0.340,0.420,0.530,0.950,1.050,1.460,1.560,1.950,2.040,2.400,2.660,2.770,2.880,3.390,3.760,4.010,4.110,4.300,4.650,4.780,5.080,5.220,5.350,5.520,5.760,5.890,6.000,6.820,6.990,7.190,7.300,7.700,7.840,7.970,8.470,8.630,8.760,9.080,9.470,10.610,10.870,11.110,11.300,11.390,11.810,12.030,12.170,12.370,12.510,12.690,12.850,12.930,13.250,13.430,13.880,14.120,14.230,14.400,14.600,14.730,14.940,15.42" 
7314-77782-0024 ",HOW,,WHY,HOW,ON,EARTH,DO,YOU,TRAIN,A,FOOTBALL,TEAM,EXCEPT,BY,PRACTICE,,DEMANDED,THE,IDIOT,,IT,WOULDN'T,TAKE,A,VERY,INGENIOUS,MIND,TO,FIGURE,OUT,A,GAME,CALLED,SHOPPING,,THAT,WOULD,BE,GOVERNED,BY,RULES,SIMILAR,TO,THOSE,OF,FOOTBALL," "0.550,1.010,1.520,1.750,2.030,2.140,2.420,2.550,2.670,2.940,3.000,3.410,3.710,4.070,4.180,4.780,4.890,5.280,5.370,5.660,6.470,6.630,6.880,7.090,7.150,7.450,8.020,8.300,8.390,8.740,8.850,8.920,9.210,9.530,9.980,10.290,10.460,10.600,10.700,11.040,11.150,11.510,11.880,12.020,12.280,12.390,12.840,13.13" 
7314-77782-0025 ",TAKE,A,COUPLE,OF,BARGAIN,COUNTERS,FOR,THE,GOALS,,PLACE,ONE,AT,ONE,END,OF,THE,SHOPNASIUM,AND,ONE,AT,THE,OTHER,,THEN,LET,SIXTY,WOMEN,START,FROM,NUMBER,ONE,,AND,TRY,TO,GET,TO,NUMBER,TWO,ACROSS,THE,FIELD,THROUGH,ANOTHER,BODY,OF,SIXTY,WOMEN,,BENT,ON,GETTING,TO,THE,OTHER,ONE,,AND,VICE,VERSA," "0.350,0.570,0.660,0.950,1.080,1.430,1.790,1.940,2.040,2.400,3.120,3.440,3.660,3.770,4.010,4.170,4.250,4.310,5.120,5.290,5.440,5.520,5.660,5.900,6.530,6.730,6.950,7.350,7.660,7.980,8.160,8.440,8.730,9.050,9.170,9.370,9.460,9.630,9.730,10.000,10.300,10.660,10.740,11.080,11.270,11.530,11.880,11.970,12.340,12.650,13.070,13.320,13.440,13.740,13.860,13.990,14.190,14.410,14.830,15.020,15.300,15.670,16.025" 
7314-77782-0026 ",YOU,COULD,TEACH,EM,ALL,THE,ARTS,OF,THE,RUSH,LINE,DEFENCE,,RUNNING,AROUND,THE,ENDS,BREAKING,THROUGH,THE,MIDDLE,AND,ALL,THAT,,AT,FIRST,THE,SCRIMMAGE,WOULD,BE,PRETTY,HARD,ON,THE,BEGINNERS,,BUT,WITH,A,MONTH'S,PRACTICE,,THEY'D,GET,HARDENED,TO,IT,,AND,BY,CHRISTMAS,TIME,THERE,ISN'T,A,BARGAIN,COUNTER,IN,THE,COUNTRY," "0.430,0.560,0.720,0.980,1.090,1.360,1.510,1.800,1.880,2.000,2.290,2.650,3.260,3.600,3.870,4.120,4.260,4.570,4.910,5.130,5.230,5.500,5.590,5.720,5.940,6.670,6.830,7.140,7.230,7.650,7.780,7.900,8.150,8.500,8.600,8.680,9.240,9.610,9.750,9.890,9.970,10.210,10.770,10.830,11.010,11.160,11.490,11.700,11.780,12.570,12.740,12.870,13.300,13.610,13.790,13.990,14.050,14.440,14.840,14.970,15.060,15.470,15.635" 
7314-77782-0027 ",THEY,COULDN'T,REACH,WITHOUT,MORE,THAN,ORDINARY,FATIGUE,,AN,INTERESTING,FEATURE,OF,THE,GAME,WOULD,BE,TO,HAVE,AUTOMATIC,CARS,AND,AUTOMOBILES,AND,CABS,,RUNNING,TO,AND,FRO,ACROSS,THE,FIELD,ALL,THE,TIME,,SO,THAT,THEY,WOULD,BECOME,ABSOLUTE,MASTERS,OF,THE,ART,OF,DODGING,,SIMILAR,VEHICLES," "0.210,0.340,0.710,1.010,1.350,1.650,1.900,2.390,2.920,3.480,3.650,4.100,4.530,4.650,4.720,5.010,5.170,5.310,5.440,5.670,6.250,6.700,6.820,7.480,7.600,8.050,8.350,8.650,8.890,9.000,9.330,9.710,9.790,10.130,10.330,10.400,10.820,11.370,11.590,11.750,11.890,12.060,12.440,12.970,13.450,13.560,13.700,13.890,14.000,14.470,14.500,14.890,15.410,15.545" 
7314-77782-0028 ",WHEN,THEY,ENCOUNTER,THEM,IN,REAL,LIFE,,AS,THEY,SURELY,MUST,WHEN,THE,HOLIDAY,SEASON,IS,IN,FULL,BLAST,,AND,THEY,ARE,COMPELLED,BY,THE,DEMANDS,OF,THE,HOUR,,TO,GO,OUT,INTO,THE,WORLD,,THE,WOMEN,COULDN'T,STAND,IT,SAID,THE,DOCTOR,,THEY,MIGHT,AS,WELL,BE,KNOCKED,OUT,,AT,THE,REAL,THING,,AS,IN,THE,IMITATION," "0.070,0.310,0.390,0.810,0.970,1.060,1.290,1.520,2.020,2.250,2.380,2.760,3.130,3.220,3.330,3.750,4.170,4.280,4.400,4.640,5.130,5.480,5.640,5.750,5.830,6.290,6.410,6.530,7.060,7.180,7.380,7.680,7.710,7.810,8.020,8.210,8.450,8.530,8.880,10.100,10.250,10.550,10.800,11.140,11.260,11.440,11.530,11.920,12.330,12.440,12.650,12.780,12.990,13.100,13.460,13.700,13.750,13.930,14.020,14.240,14.650,14.730,14.950,15.150,15.290,15.870,16.24" 
7314-77782-0029 ",THEY,WOULDN'T,BE,KNOCKED,OUT,IF,YOU,GAVE,THEM,PRELIMINARY,INDIVIDUAL,EXERCISE,WITH,PUNCHING,BAGS,,DUMMIES,FOR,TACKLE,PRACTICE,,AND,OTHER,THINGS,THE,FOOTBALL,PLAYER,USES,TO,MAKE,HIMSELF,TOUGH,,AND,IRRESISTIBLE,,BUT,YOU,CAN'T,REASON,WITH,SHOPPING,AS,YOU,DO,WITH,FOOTBALL,SUGGESTED,THE,LAWYER," "0.370,0.510,0.740,0.840,1.170,1.340,1.470,1.560,1.810,1.930,2.640,3.280,3.880,4.020,4.410,4.880,5.230,5.550,5.690,6.030,6.570,6.790,6.970,7.190,7.540,7.610,8.070,8.420,8.850,8.970,9.160,9.600,9.920,9.960,10.110,10.780,11.460,11.650,11.720,12.000,12.390,12.520,13.010,13.150,13.220,13.400,13.570,13.960,14.470,14.540,14.930,15.14" 
7314-77782-0030 ",THINK,OF,THE,GLORY,OF,WINNING,A,GOAL,WHICH,SUSTAINS,THE,FOOTBALL,PLAYER,,THROUGH,THE,TOUGHEST,OF,FIGHTS,,THE,KNOWLEDGE,THAT,THE,NATION,WILL,RING,WITH,ITS,PLAUDITS,OF,,HIS,GALLANT,ACHIEVEMENT,,IS,HALF,THE,BACKING,OF,YOUR,QUARTER,BACK,,THAT'S,ALL,RIGHT,SAID,THE,IDIOT," "0.270,0.530,0.620,0.720,1.070,1.160,1.510,1.610,1.940,2.160,2.600,2.690,3.120,3.450,3.510,3.770,3.870,4.280,4.370,4.810,5.290,5.400,5.770,5.970,6.070,6.490,6.670,6.970,7.130,7.320,7.920,8.080,8.130,8.360,8.750,9.280,9.410,9.590,9.820,9.910,10.370,10.490,10.590,10.870,11.170,11.880,12.140,12.270,12.480,12.670,12.780,13.080,13.285" 
7314-77782-0031 ",BUT,THE,MAKE,UP,OF,THE,AVERAGE,WOMAN,,IS,SUCH,THAT,WHAT,PURSUIT,OF,FAME,DOES,FOR,THE,GLADIATOR,,THE,CHASE,AFTER,A,BARGAIN,DOES,FOR,A,WOMAN,,I,HAVE,KNOWN,WOMEN,SO,WORN,AND,WEARY,THAT,THEY,,COULDN'T,GET,UP,FOR,BREAKFAST,WHO,HAD,A,LION'S,STRENGTH,AN,HOUR,LATER," "0.280,0.430,0.520,0.800,0.950,1.080,1.230,1.570,2.010,2.080,2.250,2.550,2.780,2.990,3.370,3.460,3.840,4.050,4.200,4.280,4.860,5.220,5.350,5.750,6.100,6.150,6.540,6.770,6.980,7.020,7.300,7.990,8.150,8.280,8.560,8.850,9.110,9.450,9.600,9.920,10.120,10.320,10.400,10.730,10.920,11.090,11.300,11.920,12.060,12.210,12.280,12.690,13.120,13.200,13.430,13.790,13.93" 
7314-77782-0032 ",AT,A,MONDAY,MARKED,DOWN,SALE,OF,LAUNDRY,SOAP,AND,YEATS'S,POEMS,,WHAT,THE,GOAL,IS,TO,THE,MAN,,THE,BARGAIN,IS,TO,THE,WOMAN,,SO,ON,THE,QUESTION,OF,INCENTIVE,TO,ACTION,,MISTER,BRIEF,,THE,SEXES,ARE,ABOUT,EVEN," "0.190,0.350,0.410,0.720,1.040,1.250,1.590,1.700,2.050,2.410,2.590,2.860,3.290,4.190,4.460,4.570,4.970,5.170,5.290,5.380,5.850,6.020,6.150,6.580,6.750,6.840,6.940,7.250,7.560,7.810,7.980,8.070,8.580,8.720,9.230,9.440,9.880,10.080,10.380,10.750,11.060,11.210,11.680,11.800,12.050,12.300,12.64" 
7314-77782-0034 ",UNDER,THE,MEDICAL,DIRECTION,OF,YOURSELF,AND,MY,BUSINESS,MANAGEMENT,WOULD,BE,A,WINNER,,MOREOVER,IT,WOULD,FURNISH,A,BUSINESS,OPENING,FOR,ALL,THOSE,FOOTBALL,PLAYERS,OUR,COLLEGES,ARE,TURNING,OUT,,FOR,AS,OUR,INSTITUTION,GREW,,AND,WE,ESTABLISHED,BRANCHES,OF,IT,ALL,OVER,THE,COUNTRY,,WE,SHOULD,OF,COURSE," "0.380,0.660,0.770,1.100,1.530,1.640,2.160,2.290,2.420,2.880,3.400,3.540,3.670,3.750,4.060,4.820,5.390,5.500,5.630,6.030,6.100,6.540,6.880,7.130,7.300,7.510,7.930,8.290,8.390,8.900,8.970,9.330,9.570,10.110,10.340,10.470,10.620,11.280,11.640,11.670,11.830,11.940,12.490,12.910,13.040,13.100,13.300,13.460,13.560,13.990,14.300,14.440,14.770,14.880,15.290,15.49" 
7314-77782-0035 ",HAVE,TO,HAVE,MANAGERS,IN,EVERY,CITY,,AND,WHO,BETTER,TO,TEACH,ALL,THESE,THINGS,THAN,THE,EXPERT,FOOTBALLIST,OF,THE,HOUR,,OH,WELL,SAID,THE,DOCTOR,,PERHAPS,IT,ISN'T,SUCH,A,BAD,THING,AFTER,ALL,,BUT,I,DON'T,THINK,I,CARE,TO,GO,INTO,IT," "0.220,0.560,0.690,0.930,1.450,1.550,1.770,2.110,2.340,2.520,2.640,2.960,3.060,3.380,3.580,3.860,4.230,4.390,4.520,4.930,5.610,5.720,5.900,6.140,6.890,7.060,7.330,7.550,7.640,8.050,8.360,8.790,8.890,9.120,9.320,9.380,9.660,9.910,10.160,10.360,10.810,10.960,11.040,11.180,11.440,11.510,11.750,11.840,11.950,12.290,12.400,12.57" 
7314-77782-0036 ",VERY,WELL,SAID,THE,IDIOT,,THAT,BEING,THE,CASE,,I,WILL,MODIFY,MY,SUGGESTION,SOMEWHAT,,AND,SEND,THE,IDEA,TO,PRESIDENT,TAYLOR,OF,VASSAR,,AND,OTHER,HEADS,OF,WOMEN'S,COLLEGES," "0.480,0.770,1.030,1.270,1.390,1.690,2.120,2.350,2.560,2.640,3.110,3.380,3.480,3.620,4.110,4.280,4.840,5.300,5.600,5.770,6.030,6.180,6.520,6.610,7.040,7.420,7.500,7.970,8.320,8.470,8.670,8.940,9.050,9.380,9.940,10.22" 
7314-77782-0037 ",WHO,WILL,SOON,GRADUATE,INTO,THE,LARGER,INSTITUTION,OF,MATRIMONY,,THAT,IS,THE,ONLY,WAY,I,CAN,SEE,FOR,US,TO,BUILD,UP,A,WOMAN,OF,THE,FUTURE," "0.200,0.290,0.430,0.690,1.250,1.430,1.490,1.960,2.580,2.660,3.230,3.490,3.680,3.800,3.960,4.260,4.550,4.670,4.830,5.050,5.270,5.420,5.520,5.800,5.950,6.000,6.350,6.520,6.580,7.070,7.18" 
7314-77782-0038 ",IN,THE,PURCHASE,,OF,A,CAKE,,OF,SOAP,TO,SEND,TO,ONE'S,GRANDMOTHER,AT,CHRISTMAS," "0.150,0.310,0.390,0.930,0.960,1.080,1.150,1.500,1.530,1.680,2.020,2.160,2.440,2.550,2.800,3.330,3.450,3.860,4.065" 